[{"OBJECT_NAME":"NEXSAT-1","OBJECT_ID":"2024-024E","EPOCH":"2026-03-09T22:47:24.778176","MEAN_MOTION":15.32166372,"ECCENTRICITY":0.00099795,"INCLINATION":97.3124,"RA_OF_ASC_NODE":144.1918,"ARG_OF_PERICENTER":108.5709,"MEAN_ANOMALY":251.6617,"EPHEMERIS_TYPE":0,"CLASSIFICATION_TYPE":"U","NORAD_CAT_ID":58921,"ELEMENT_SET_NO":999,"REV_AT_EPOCH":11669,"BSTAR":0.00031433612,"MEAN_MOTION_DOT":9.702e-5,"MEAN_MOTION_DDOT":0},{"OBJECT_NAME":"STARLINK-34960","OBJECT_ID":"2025-176X","EPOCH":"2026-03-09T22:45:01.825920","MEAN_MOTION":15.30211699,"ECCENTRICITY":0.00014589,"INCLINATION":53.1605,"RA_OF_ASC_NODE":151.267,"ARG_OF_PERICENTER":81.942,"MEAN_ANOMALY":278.1747,"EPHEMERIS_TYPE":0,"CLASSIFICATION_TYPE":"U","NORAD_CAT_ID":65219,"ELEMENT_SET_NO":999,"REV_AT_EPOCH":3316,"BSTAR":0.00073692971,"MEAN_MOTION_DOT":0.00021538,"MEAN_MOTION_DDOT":0}]
